NAVSTAR 46 (USA 145)    
1 25933U 99055A   25061.23755846 -.00000054  00000+0  00000+0 0  9992
2 25933  51.8747 316.0441 0115268 159.6186 270.1244  2.00561430186112
NAVSTAR 47 (USA 150)    
1 26360U 00025A   25061.55951066 -.00000050  00000+0  00000+0 0  9999
2 26360  54.8649  38.3755 0038509 230.7963 231.2286  2.00558722181815
NAVSTAR 48 (USA 151)    
1 26407U 00040A   25060.65512225  .00000048  00000+0  00000+0 0  9994
2 26407  54.9743 233.9384 0134739 298.4856  68.1340  2.00564009180472
NAVSTAR 49 (USA 154)    
1 26605U 00071A   25061.24194277  .00000029  00000+0  00000+0 0  9996
2 26605  55.3740 113.6076 0163356 261.9852  98.2477  2.00561880178054
NAVSTAR 50 (USA 156)    
1 26690U 01004A   25061.05353720 -.00000032  00000+0  00000+0 0  9991
2 26690  54.8434  49.9995 0002884 347.7089 191.3598  1.91587949174492
NAVSTAR 51 (USA 166)    
1 27663U 03005A   25061.20322546  .00000050  00000+0  00000+0 0  9993
2 27663  55.0099 233.7269 0143531  49.7339 133.4501  2.00560082161848
NAVSTAR 53 (USA 175)    
1 28129U 03058A   25061.23371148 -.00000046  00000+0  00000+0 0  9990
2 28129  54.7173  40.8369 0070560 347.6213  12.2020  2.00568498155320
NAVSTAR 54 (USA 177)    
1 28190U 04009A   25061.43000149 -.00000013  00000+0  00000+0 0  9991
2 28190  55.2291 294.6977 0101147 156.9712 344.6127  2.00570356153481
NAVSTAR 55 (USA 178)    
1 28361U 04023A   25059.59713322  .00000038  00000+0  00000+0 0  9991
2 28361  54.5551 105.8726 0154995 288.1224 146.9971  2.00559338151566
NAVSTAR 56 (USA 180)    
1 28474U 04045A   25057.27891498 -.00000074  00000+0  00000+0 0  9995
2 28474  55.3623 344.0308 0164349 300.5074 134.4672  2.00657055148885
NAVSTAR 57 (USA 183)    
1 28874U 05038A   25061.44038193 -.00000009  00000+0  00000+0 0  9999
2 28874  55.2738 292.1669 0133851 289.3810 246.1113  2.00567730142373
NAVSTAR 58 (USA 190)    
1 29486U 06042A   25060.38105728  .00000028  00000+0  00000+0 0  9996
2 29486  54.6803 170.0957 0104665  45.2600 345.4480  2.00568461134913
