[
    {
        "OBJECT_NAME": "NAVSTAR 46 (USA 145)",
        "OBJECT_ID": "1999-055A",
        "EPOCH": "2025-03-02T05:42:05.050944",
        "MEAN_MOTION": 2.0056143,
        "ECCENTRICITY": 0.0115268,
        "INCLINATION": 51.8747,
        "RA_OF_ASC_NODE": 316.0441,
        "ARG_OF_PERICENTER": 159.6186,
        "MEAN_ANOMALY": 270.1244,
        "EPHEMERIS_TYPE": 0,
        "CLASSIFICATION_TYPE": "U",
        "NORAD_CAT_ID": 25933,
        "ELEMENT_SET_NO": 999,
        "REV_AT_EPOCH": 18611,
        "BSTAR": 0,
        "MEAN_MOTION_DOT": -5.4e-07,
        "MEAN_MOTION_DDOT": 0
    },
    {
        "OBJECT_NAME": "NAVSTAR 47 (USA 150)",
        "OBJECT_ID": "2000-025A",
        "EPOCH": "2025-03-02T13:25:41.721024",
        "MEAN_MOTION": 2.00558722,
        "ECCENTRICITY": 0.0038509,
        "INCLINATION": 54.8649,
        "RA_OF_ASC_NODE": 38.3755,
        "ARG_OF_PERICENTER": 230.7963,
        "MEAN_ANOMALY": 231.2286,
        "EPHEMERIS_TYPE": 0,
        "CLASSIFICATION_TYPE": "U",
        "NORAD_CAT_ID": 26360,
        "ELEMENT_SET_NO": 999,
        "REV_AT_EPOCH": 18181,
        "BSTAR": 0,
        "MEAN_MOTION_DOT": -5e-07,
        "MEAN_MOTION_DDOT": 0
    },
    {
        "OBJECT_NAME": "NAVSTAR 48 (USA 151)",
        "OBJECT_ID": "2000-040A",
        "EPOCH": "2025-03-01T15:43:22.562400",
        "MEAN_MOTION": 2.00564009,
        "ECCENTRICITY": 0.0134739,
        "INCLINATION": 54.9743,
        "RA_OF_ASC_NODE": 233.9384,
        "ARG_OF_PERICENTER": 298.4856,
        "MEAN_ANOMALY": 68.134,
        "EPHEMERIS_TYPE": 0,
        "CLASSIFICATION_TYPE": "U",
        "NORAD_CAT_ID": 26407,
        "ELEMENT_SET_NO": 999,
        "REV_AT_EPOCH": 18047,
        "BSTAR": 0,
        "MEAN_MOTION_DOT": 4.8e-07,
        "MEAN_MOTION_DDOT": 0
    },
    {
        "OBJECT_NAME": "NAVSTAR 49 (USA 154)",
        "OBJECT_ID": "2000-071A",
        "EPOCH": "2025-03-02T05:48:23.855328",
        "MEAN_MOTION": 2.0056188,
        "ECCENTRICITY": 0.0163356,
        "INCLINATION": 55.374,
        "RA_OF_ASC_NODE": 113.6076,
        "ARG_OF_PERICENTER": 261.9852,
        "MEAN_ANOMALY": 98.2477,
        "EPHEMERIS_TYPE": 0,
        "CLASSIFICATION_TYPE": "U",
        "NORAD_CAT_ID": 26605,
        "ELEMENT_SET_NO": 999,
        "REV_AT_EPOCH": 17805,
        "BSTAR": 0,
        "MEAN_MOTION_DOT": 2.9e-07,
        "MEAN_MOTION_DDOT": 0
    },
    {
        "OBJECT_NAME": "NAVSTAR 50 (USA 156)",
        "OBJECT_ID": "2001-004A",
        "EPOCH": "2025-03-02T01:17:05.614080",
        "MEAN_MOTION": 1.91587949,
        "ECCENTRICITY": 0.0002884,
        "INCLINATION": 54.8434,
        "RA_OF_ASC_NODE": 49.9995,
        "ARG_OF_PERICENTER": 347.7089,
        "MEAN_ANOMALY": 191.3598,
        "EPHEMERIS_TYPE": 0,
        "CLASSIFICATION_TYPE": "U",
        "NORAD_CAT_ID": 26690,
        "ELEMENT_SET_NO": 999,
        "REV_AT_EPOCH": 17449,
        "BSTAR": 0,
        "MEAN_MOTION_DOT": -3.2e-07,
        "MEAN_MOTION_DDOT": 0
    },
    {
        "OBJECT_NAME": "NAVSTAR 51 (USA 166)",
        "OBJECT_ID": "2003-005A",
        "EPOCH": "2025-03-02T04:52:38.679744",
        "MEAN_MOTION": 2.00560082,
        "ECCENTRICITY": 0.0143531,
        "INCLINATION": 55.0099,
        "RA_OF_ASC_NODE": 233.7269,
        "ARG_OF_PERICENTER": 49.7339,
        "MEAN_ANOMALY": 133.4501,
        "EPHEMERIS_TYPE": 0,
        "CLASSIFICATION_TYPE": "U",
        "NORAD_CAT_ID": 27663,
        "ELEMENT_SET_NO": 999,
        "REV_AT_EPOCH": 16184,
        "BSTAR": 0,
        "MEAN_MOTION_DOT": 5e-07,
        "MEAN_MOTION_DDOT": 0
    },
    {
        "OBJECT_NAME": "NAVSTAR 53 (USA 175)",
        "OBJECT_ID": "2003-058A",
        "EPOCH": "2025-03-02T05:36:32.671872",
        "MEAN_MOTION": 2.00568498,
        "ECCENTRICITY": 0.007056,
        "INCLINATION": 54.7173,
        "RA_OF_ASC_NODE": 40.8369,
        "ARG_OF_PERICENTER": 347.6213,
        "MEAN_ANOMALY": 12.202,
        "EPHEMERIS_TYPE": 0,
        "CLASSIFICATION_TYPE": "U",
        "NORAD_CAT_ID": 28129,
        "ELEMENT_SET_NO": 999,
        "REV_AT_EPOCH": 15532,
        "BSTAR": 0,
        "MEAN_MOTION_DOT": -4.6e-07,
        "MEAN_MOTION_DDOT": 0
    },
    {
        "OBJECT_NAME": "NAVSTAR 54 (USA 177)",
        "OBJECT_ID": "2004-009A",
        "EPOCH": "2025-03-02T10:19:12.128736",
        "MEAN_MOTION": 2.00570356,
        "ECCENTRICITY": 0.0101147,
        "INCLINATION": 55.2291,
        "RA_OF_ASC_NODE": 294.6977,
        "ARG_OF_PERICENTER": 156.9712,
        "MEAN_ANOMALY": 344.6127,
        "EPHEMERIS_TYPE": 0,
        "CLASSIFICATION_TYPE": "U",
        "NORAD_CAT_ID": 28190,
        "ELEMENT_SET_NO": 999,
        "REV_AT_EPOCH": 15348,
        "BSTAR": 0,
        "MEAN_MOTION_DOT": -1.3e-07,
        "MEAN_MOTION_DDOT": 0
    },
    {
        "OBJECT_NAME": "NAVSTAR 55 (USA 178)",
        "OBJECT_ID": "2004-023A",
        "EPOCH": "2025-02-28T14:19:52.310208",
        "MEAN_MOTION": 2.00559338,
        "ECCENTRICITY": 0.0154995,
        "INCLINATION": 54.5551,
        "RA_OF_ASC_NODE": 105.8726,
        "ARG_OF_PERICENTER": 288.1224,
        "MEAN_ANOMALY": 146.9971,
        "EPHEMERIS_TYPE": 0,
        "CLASSIFICATION_TYPE": "U",
        "NORAD_CAT_ID": 28361,
        "ELEMENT_SET_NO": 999,
        "REV_AT_EPOCH": 15156,
        "BSTAR": 0,
        "MEAN_MOTION_DOT": 3.8e-07,
        "MEAN_MOTION_DDOT": 0
    },
    {
        "OBJECT_NAME": "NAVSTAR 56 (USA 180)",
        "OBJECT_ID": "2004-045A",
        "EPOCH": "2025-02-26T06:41:38.254272",
        "MEAN_MOTION": 2.00657055,
        "ECCENTRICITY": 0.0164349,
        "INCLINATION": 55.3623,
        "RA_OF_ASC_NODE": 344.0308,
        "ARG_OF_PERICENTER": 300.5074,
        "MEAN_ANOMALY": 134.4672,
        "EPHEMERIS_TYPE": 0,
        "CLASSIFICATION_TYPE": "U",
        "NORAD_CAT_ID": 28474,
        "ELEMENT_SET_NO": 999,
        "REV_AT_EPOCH": 14888,
        "BSTAR": 0,
        "MEAN_MOTION_DOT": -7.4e-07,
        "MEAN_MOTION_DDOT": 0
    },
    {
        "OBJECT_NAME": "NAVSTAR 57 (USA 183)",
        "OBJECT_ID": "2005-038A",
        "EPOCH": "2025-03-02T10:34:08.998752",
        "MEAN_MOTION": 2.0056773,
        "ECCENTRICITY": 0.0133851,
        "INCLINATION": 55.2738,
        "RA_OF_ASC_NODE": 292.1669,
        "ARG_OF_PERICENTER": 289.381,
        "MEAN_ANOMALY": 246.1113,
        "EPHEMERIS_TYPE": 0,
        "CLASSIFICATION_TYPE": "U",
        "NORAD_CAT_ID": 28874,
        "ELEMENT_SET_NO": 999,
        "REV_AT_EPOCH": 14237,
        "BSTAR": 0,
        "MEAN_MOTION_DOT": -9e-08,
        "MEAN_MOTION_DDOT": 0
    },
    {
        "OBJECT_NAME": "NAVSTAR 58 (USA 190)",
        "OBJECT_ID": "2006-042A",
        "EPOCH": "2025-03-01T09:08:43.348992",
        "MEAN_MOTION": 2.00568461,
        "ECCENTRICITY": 0.0104665,
        "INCLINATION": 54.6803,
        "RA_OF_ASC_NODE": 170.0957,
        "ARG_OF_PERICENTER": 45.26,
        "MEAN_ANOMALY": 345.448,
        "EPHEMERIS_TYPE": 0,
        "CLASSIFICATION_TYPE": "U",
        "NORAD_CAT_ID": 29486,
        "ELEMENT_SET_NO": 999,
        "REV_AT_EPOCH": 13491,
        "BSTAR": 0,
        "MEAN_MOTION_DOT": 2.8e-07,
        "MEAN_MOTION_DDOT": 0
    }
]